{"type": "FeatureCollection", "features": [ {"type": "Feature", "properties": {"norad_id": 43622, "name": "BEIDOU-3 M13 (C32)", "group": "beidou", "lat": -42.71889603653994, "lon": 30.753140521108662, "alt_km": 21515.37653129939, "timestamp": "2025-12-24T09:46:31.269573+00:00", "meta": {"OBJECT_NAME": "BEIDOU-3 M13 (C32)", "OBJECT_ID": "2018-072A", "EPOCH": "2025-12-22T08:10:31.412640", "MEAN_MOTION": 1.86231166, "ECCENTRICITY": 0.00064111, "INCLINATION": 56.4667, "RA_OF_ASC_NODE": 68.5024, "ARG_OF_PERICENTER": 297.4685, "MEAN_ANOMALY": 62.5173, "EPHEMERIS_TYPE": 0, "CLASSIFICATION_TYPE": "U", "NORAD_CAT_ID": 43622, "ELEMENT_SET_NO": 999, "REV_AT_EPOCH": 4936, "BSTAR": 0, "MEAN_MOTION_DOT": -2.9e-07, "MEAN_MOTION_DDOT": 0}, "tle": {"line1": "1 43622U 18072A   25356.34064135 -.00000029  00000+0  00000+0 0  9992", "line2": "2 43622  56.4667  68.5024 0006411 297.4685  62.5173  1.86231166 49361"}}, "geometry": {"type": "Point", "coordinates": [30.753140521108662, -42.71889603653994]}}, {"type": "Feature", "properties": {"norad_id": 43623, "name": "BEIDOU-3 M14 (C33)", "group": "beidou", "lat": 29.194822747514703, "lon": 90.16309176746537, "alt_km": 21520.871425599642, "timestamp": "2025-12-24T09:46:31.269584+00:00", "meta": {"OBJECT_NAME": "BEIDOU-3 M14 (C33)", "OBJECT_ID": "2018-072B", "EPOCH": "2025-12-23T06:43:13.861056", "MEAN_MOTION": 1.86231163, "ECCENTRICITY": 0.00035931, "INCLINATION": 56.4696, "RA_OF_ASC_NODE": 68.4654, "ARG_OF_PERICENTER": 327.0772, "MEAN_ANOMALY": 32.9541, "EPHEMERIS_TYPE": 0, "CLASSIFICATION_TYPE": "U", "NORAD_CAT_ID": 43623, "ELEMENT_SET_NO": 999, "REV_AT_EPOCH": 4937, "BSTAR": 0, "MEAN_MOTION_DOT": -2.6e-07, "MEAN_MOTION_DDOT": 0}, "tle": {"line1": "1 43623U 18072B   25357.28002154 -.00000026  00000+0  00000+0 0  9997", "line2": "2 43623  56.4696  68.4654 0003593 327.0772  32.9541  1.86231163 49375"}}, "geometry": {"type": "Point", "coordinates": [90.16309176746537, 29.194822747514703]}}, {"type": "Feature", "properties": {"norad_id": 43647, "name": "BEIDOU-3 M16 (C35)", "group": "beidou", "lat": -49.69229277823024, "lon": -111.92197389171469, "alt_km": 21533.520753901917, "timestamp": "2025-12-24T09:46:31.269595+00:00", "meta": {"OBJECT_NAME": "BEIDOU-3 M16 (C35)", "OBJECT_ID": "2018-078A", "EPOCH": "2025-12-23T23:23:29.633856", "MEAN_MOTION": 1.86232286, "ECCENTRICITY": 0.000745, "INCLINATION": 54.2515, "RA_OF_ASC_NODE": 306.1286, "ARG_OF_PERICENTER": 20.4306, "MEAN_ANOMALY": 339.606, "EPHEMERIS_TYPE": 0, "CLASSIFICATION_TYPE": "U", "NORAD_CAT_ID": 43647, "ELEMENT_SET_NO": 999, "REV_AT_EPOCH": 4889, "BSTAR": 0, "MEAN_MOTION_DOT": -5.2e-07, "MEAN_MOTION_DDOT": 0}, "tle": {"line1": "1 43647U 18078A   25357.97464854 -.00000052  00000+0  00000+0 0  9993", "line2": "2 43647  54.2515 306.1286 0007450  20.4306 339.6060  1.86232286 48899"}}, "geometry": {"type": "Point", "coordinates": [-111.92197389171469, -49.69229277823024]}}, {"type": "Feature", "properties": {"norad_id": 43648, "name": "BEIDOU-3 M15 (C34)", "group": "beidou", "lat": -18.884834159103864, "lon": 140.3476394614568, "alt_km": 21541.804478176527, "timestamp": "2025-12-24T09:46:31.269607+00:00", "meta": {"OBJECT_NAME": "BEIDOU-3 M15 (C34)", "OBJECT_ID": "2018-078B", "EPOCH": "2025-12-23T00:43:09.285312", "MEAN_MOTION": 1.86232355, "ECCENTRICITY": 0.00040598, "INCLINATION": 54.2483, "RA_OF_ASC_NODE": 306.1625, "ARG_OF_PERICENTER": 19.7636, "MEAN_ANOMALY": 340.2561, "EPHEMERIS_TYPE": 0, "CLASSIFICATION_TYPE": "U", "NORAD_CAT_ID": 43648, "ELEMENT_SET_NO": 999, "REV_AT_EPOCH": 4889, "BSTAR": 0, "MEAN_MOTION_DOT": -5.4e-07, "MEAN_MOTION_DDOT": 0}, "tle": {"line1": "1 43648U 18078B   25357.02996858 -.00000054  00000+0  00000+0 0  9996", "line2": "2 43648  54.2483 306.1625 0004059  19.7636 340.2561  1.86232355 48891"}}, "geometry": {"type": "Point", "coordinates": [140.3476394614568, -18.884834159103864]}}, {"type": "Feature", "properties": {"norad_id": 43683, "name": "BEIDOU-3 G1 (C59)", "group": "beidou", "lat": -2.613460493989761, "lon": 19.76813053261201, "alt_km": 35791.47952213508, "timestamp": "2025-12-24T09:46:31.269619+00:00", "meta": {"OBJECT_NAME": "BEIDOU-3 G1 (C59)", "OBJECT_ID": "2018-085A", "EPOCH": "2025-12-24T03:28:38.546112", "MEAN_MOTION": 1.00266949, "ECCENTRICITY": 0.0001466, "INCLINATION": 2.6345, "RA_OF_ASC_NODE": 102.6299, "ARG_OF_PERICENTER": 43.8286, "MEAN_ANOMALY": 138.5945, "EPHEMERIS_TYPE": 0, "CLASSIFICATION_TYPE": "U", "NORAD_CAT_ID": 43683, "ELEMENT_SET_NO": 999, "REV_AT_EPOCH": 2630, "BSTAR": 0, "MEAN_MOTION_DOT": -2.59e-06, "MEAN_MOTION_DDOT": 0}, "tle": {"line1": "1 43683U 18085A   25358.14489058 -.00000259  00000+0  00000+0 0  9993", "line2": "2 43683   2.6345 102.6299 0001466  43.8286 138.5945  1.00266949 26306"}}, "geometry": {"type": "Point", "coordinates": [19.76813053261201, -2.613460493989761]}}, {"type": "Feature", "properties": {"norad_id": 43706, "name": "BEIDOU-3 M17 (C36)", "group": "beidou", "lat": 53.5428831447905, "lon": -69.8129612026466, "alt_km": 21536.582297938952, "timestamp": "2025-12-24T09:46:31.269631+00:00", "meta": {"OBJECT_NAME": "BEIDOU-3 M17 (C36)", "OBJECT_ID": "2018-093A", "EPOCH": "2025-12-22T11:03:17.644896", "MEAN_MOTION": 1.86228432, "ECCENTRICITY": 0.00060427, "INCLINATION": 54.173, "RA_OF_ASC_NODE": 188.2918, "ARG_OF_PERICENTER": 307.405, "MEAN_ANOMALY": 284.4943, "EPHEMERIS_TYPE": 0, "CLASSIFICATION_TYPE": "U", "NORAD_CAT_ID": 43706, "ELEMENT_SET_NO": 999, "REV_AT_EPOCH": 4824, "BSTAR": 0, "MEAN_MOTION_DOT": 9.4e-07, "MEAN_MOTION_DDOT": 0}, "tle": {"line1": "1 43706U 18093A   25356.46062089  .00000094  00000+0  00000+0 0  9998", "line2": "2 43706  54.1730 188.2918 0006042 307.4050 284.4943  1.86228432 48248"}}, "geometry": {"type": "Point", "coordinates": [-69.8129612026466, 53.5428831447905]}}, {"type": "Feature", "properties": {"norad_id": 43707, "name": "BEIDOU-3 M18 (C37)", "group": "beidou", "lat": -7.972746349844301, "lon": 14.030271778078744, "alt_km": 21546.271651609266, "timestamp": "2025-12-24T09:46:31.269642+00:00", "meta": {"OBJECT_NAME": "BEIDOU-3 M18 (C37)", "OBJECT_ID": "2018-093B", "EPOCH": "2025-12-23T01:12:21.238848", "MEAN_MOTION": 1.86226616, "ECCENTRICITY": 0.0006147, "INCLINATION": 54.1741, "RA_OF_ASC_NODE": 188.2636, "ARG_OF_PERICENTER": 354.1254, "MEAN_ANOMALY": 5.9078, "EPHEMERIS_TYPE": 0, "CLASSIFICATION_TYPE": "U", "NORAD_CAT_ID": 43707, "ELEMENT_SET_NO": 999, "REV_AT_EPOCH": 4825, "BSTAR": 0, "MEAN_MOTION_DOT": 9.6e-07, "MEAN_MOTION_DDOT": 0}, "tle": {"line1": "1 43707U 18093B   25357.05024582  .00000096  00000+0  00000+0 0  9993", "line2": "2 43707  54.1741 188.2636 0006147 354.1254   5.9078  1.86226616 48257"}}, "geometry": {"type": "Point", "coordinates": [14.030271778078744, -7.972746349844301]}}, {"type": "Feature", "properties": {"norad_id": 44231, "name": "BEIDOU-2 G8 (C01)", "group": "beidou", "lat": -1.2972375538619356, "lon": 24.397900278035234, "alt_km": 35763.24597328195, "timestamp": "2025-12-24T09:46:31.269654+00:00", "meta": {"OBJECT_NAME": "BEIDOU-2 G8 (C01)", "OBJECT_ID": "2019-027A", "EPOCH": "2025-12-24T00:58:21.629568", "MEAN_MOTION": 1.00274951, "ECCENTRICITY": 0.0008303, "INCLINATION": 1.6888, "RA_OF_ASC_NODE": 74.7343, "ARG_OF_PERICENTER": 259.1988, "MEAN_ANOMALY": 277.9784, "EPHEMERIS_TYPE": 0, "CLASSIFICATION_TYPE": "U", "NORAD_CAT_ID": 44231, "ELEMENT_SET_NO": 999, "REV_AT_EPOCH": 2432, "BSTAR": 0, "MEAN_MOTION_DOT": -2.26e-06, "MEAN_MOTION_DDOT": 0}, "tle": {"line1": "1 44231U 19027A   25358.04052812 -.00000226  00000+0  00000+0 0  9997", "line2": "2 44231   1.6888  74.7343 0008303 259.1988 277.9784  1.00274951 24325"}}, "geometry": {"type": "Point", "coordinates": [24.397900278035234, -1.2972375538619356]}}, {"type": "Feature", "properties": {"norad_id": 44337, "name": "BEIDOU-3 IGSO-2 (C39)", "group": "beidou", "lat": -15.34898694947977, "lon": -8.61492755412846, "alt_km": 35631.018533467795, "timestamp": "2025-12-24T09:46:31.269666+00:00", "meta": {"OBJECT_NAME": "BEIDOU-3 IGSO-2 (C39)", "OBJECT_ID": "2019-035A", "EPOCH": "2025-12-23T20:34:24.431808", "MEAN_MOTION": 1.00267916, "ECCENTRICITY": 0.00378021, "INCLINATION": 55.2291, "RA_OF_ASC_NODE": 160.4037, "ARG_OF_PERICENTER": 202.4581, "MEAN_ANOMALY": 157.7229, "EPHEMERIS_TYPE": 0, "CLASSIFICATION_TYPE": "U", "NORAD_CAT_ID": 44337, "ELEMENT_SET_NO": 999, "REV_AT_EPOCH": 2391, "BSTAR": 0, "MEAN_MOTION_DOT": -7.4e-07, "MEAN_MOTION_DDOT": 0}, "tle": {"line1": "1 44337U 19035A   25357.85722722 -.00000074  00000+0  00000+0 0  9996", "line2": "2 44337  55.2291 160.4037 0037802 202.4581 157.7229  1.00267916 23910"}}, "geometry": {"type": "Point", "coordinates": [-8.61492755412846, -15.34898694947977]}}, {"type": "Feature", "properties": {"norad_id": 44542, "name": "BEIDOU-3 M24 (C46)", "group": "beidou", "lat": 29.661473305801564, "lon": -15.465186139382665, "alt_km": 21536.44688666942, "timestamp": "2025-12-24T09:46:31.269677+00:00", "meta": {"OBJECT_NAME": "BEIDOU-3 M24 (C46)", "OBJECT_ID": "2019-061A", "EPOCH": "2025-12-23T15:47:40.430112", "MEAN_MOTION": 1.86229437, "ECCENTRICITY": 0.00095913, "INCLINATION": 54.4006, "RA_OF_ASC_NODE": 188.6475, "ARG_OF_PERICENTER": 26.0313, "MEAN_ANOMALY": 334.0556, "EPHEMERIS_TYPE": 0, "CLASSIFICATION_TYPE": "U", "NORAD_CAT_ID": 44542, "ELEMENT_SET_NO": 999, "REV_AT_EPOCH": 4252, "BSTAR": 0, "MEAN_MOTION_DOT": 9.9e-07, "MEAN_MOTION_DDOT": 0}, "tle": {"line1": "1 44542U 19061A   25357.65810683  .00000099  00000+0  00000+0 0  9991", "line2": "2 44542  54.4006 188.6475 0009591  26.0313 334.0556  1.86229437 42529"}}, "geometry": {"type": "Point", "coordinates": [-15.465186139382665, 29.661473305801564]}}]}